[{"OBJECT_NAME":"STARLINK-31578","OBJECT_ID":"2024-057B","EPOCH":"2026-03-08T15:21:37.066176","MEAN_MOTION":15.27576516,"ECCENTRICITY":9.437e-5,"INCLINATION":42.9986,"RA_OF_ASC_NODE":192.5598,"ARG_OF_PERICENTER":263.492,"MEAN_ANOMALY":96.5824,"EPHEMERIS_TYPE":0,"CLASSIFICATION_TYPE":"U","NORAD_CAT_ID":59321,"ELEMENT_SET_NO":999,"REV_AT_EPOCH":10968,"BSTAR":2.3922819e-5,"MEAN_MOTION_DOT":3.96e-6,"MEAN_MOTION_DDOT":0},{"OBJECT_NAME":"COSMOS 917 DEB","OBJECT_ID":"1977-047S","EPOCH":"2026-03-09T20:10:07.489344","MEAN_MOTION":2.01753908,"ECCENTRICITY":0.74189605,"INCLINATION":60.1381,"RA_OF_ASC_NODE":236.4663,"ARG_OF_PERICENTER":59.444,"MEAN_ANOMALY":353.0322,"EPHEMERIS_TYPE":0,"CLASSIFICATION_TYPE":"U","NORAD_CAT_ID":35505,"ELEMENT_SET_NO":999,"REV_AT_EPOCH":14389,"BSTAR":0.0017800175,"MEAN_MOTION_DOT":-5.03e-6,"MEAN_MOTION_DDOT":0}]
